STARLINK-36830          
1 68110U 26044K   26074.58335648 -.01886111  10492-2 -40564-2 0  9990
2 68110  97.2812  34.9134 0001659 111.8704 161.5120 15.98640004  2346
STARLINK-36791          
1 68111U 26044L   26074.58335648 -.01879203  10451-2 -39827-2 0  9990
2 68111  97.2812  34.9157 0001568 109.3767 168.4662 15.98903263  2292
STARLINK-36893          
1 68112U 26044M   26074.58335648 -.01874249  10414-2 -39438-2 0  9993
2 68112  97.2809  34.9164 0001553 109.2680 170.7299 15.99031492  2349
STARLINK-36937          
1 68113U 26044N   26074.58335648 -.01865840  10357-2 -38692-2 0  9998
2 68113  97.2810  34.9184 0001545 115.6517 168.8561 15.99292076  2296
STARLINK-36229          
1 68114U 26044P   26074.58335648 -.01866296  10347-2 -38976-2 0  9999
2 68114  97.2804  34.9167 0001600 114.1208 168.2427 15.99165305  2349
STARLINK-36392          
1 68115U 26044Q   26074.58335648 -.01868979  10407-2 -38447-2 0  9990
2 68115  97.2805  34.9192 0001566 117.2687 169.8838 15.99435748  2349
STARLINK-36805          
1 68116U 26044R   26074.58335648 -.01883355  10577-2 -38412-2 0  9996
2 68116  97.2803  34.9204 0001540 112.7895 177.3305 15.99589696  2340
STARLINK-36844          
1 68117U 26044S   26074.58335648 -.01879659  10554-2 -38058-2 0  9990
2 68117  97.2800  34.9212 0001446 110.2614 182.0577 15.99719525  2298
STARLINK-36789          
1 68118U 26044T   26074.58335648 -.01902219  10813-2 -38207-2 0  9994
2 68118  97.2802  34.9234 0001380 106.2369 190.9519 15.99864380  2298
STARLINK-36850          
1 68119U 26044U   26074.58335648 -.01901162  10819-2 -37898-2 0  9992
2 68119  97.2801  34.9243 0001484 113.6222 185.8449 15.99997871  2290
STARLINK-36868          
1 68120U 26044V   26074.58335648 -.01916420  11004-2 -37871-2 0  9995
2 68120  97.2797  34.9258 0001549 107.3684 194.9853 16.00153527  2291
STARLINK-36855          
1 68121U 26044W   26074.58335648 -.01914037  10996-2 -37521-2 0  9999
2 68121  97.2797  34.9269 0001616 115.1117 189.8690 16.00294790  2297
